*******************************************************************************
JPL/HORIZONS                1051 Merope (1925 SA)          2023-Sep-04 11:09:55
Rec #:    1051 (+COV) Soln.date: 2023-Aug-21_12:17:35   # obs: 5277 (1925-2023)
 
IAU76/J2000 helio. ecliptic osc. elements (au, days, deg., period=Julian yrs):
 
  EPOCH=  2457003.5 ! 2014-Dec-12.00 (TDB)         Residual RMS= .21792
   EC= .09750979994168464  QR= 2.904457331757973   TP= 2458050.6482330295
   OM= 180.7321684841474   W=  152.4358919232457   IN= 23.48347272740517
   A= 3.218270216751715    MA= 181.236652357159    ADIST= 3.532083101745457
   PER= 5.77354            N= .170714462           ANGMOM= .03071271
   DAN= 3.48929            DDN= 2.93405            L= 335.1491107
   B= 10.6258643           MOID= 1.91231           TP= 2017-Oct-24.1482330295
 
Asteroid physical parameters (km, seconds, rotational period in hours):
   GM= n.a.                RAD= 30.2195            ROTPER= 13.71
   H= 10.22                G= .150                 B-V= n.a.
                           ALBEDO= .053            STYP= n.a.

ASTEROID comments: 
1: soln ref.= JPL#72, OCC=0
2: source=ORB
*******************************************************************************


*******************************************************************************
Ephemeris / API_USER Mon Sep  4 11:09:55 2023 Pasadena, USA      / Horizons
*******************************************************************************
Target body name: 1051 Merope (1925 SA)           {source: JPL#72}
Center body name: Solar System Barycenter (0)     {source: DE441}
Center-site name: BODY CENTER
*******************************************************************************
Start time      : A.D. 2023-Aug-12 00:00:00.0000 TDB
Stop  time      : A.D. 2023-Aug-13 00:00:00.0000 TDB
Step-size       : 2880 minutes
*******************************************************************************
Center geodetic : 0.0, 0.0, 0.0                   {E-lon(deg),Lat(deg),Alt(km)}
Center cylindric: 0.0, 0.0, 0.0                   {E-lon(deg),Dxy(km),Dz(km)}
Center radii    : (undefined)
Small perturbers: Yes                             {source: SB441-N16}
Output units    : KM-S
Calendar mode   : Mixed Julian/Gregorian
Output type     : GEOMETRIC cartesian states
Output format   : 2 (position and velocity)
Reference frame : Ecliptic of J2000.0
*******************************************************************************
Initial IAU76/J2000 heliocentric ecliptic osculating elements (au, days, deg.):
  EPOCH=  2457003.5 ! 2014-Dec-12.00 (TDB)         Residual RMS= .21792        
   EC= .09750979994168464  QR= 2.904457331757973   TP= 2458050.6482330295      
   OM= 180.7321684841474   W=  152.4358919232457   IN= 23.48347272740517       
  Equivalent ICRF heliocentric cartesian coordinates (au, au/d):
   X=-3.178003253733289E+00  Y= 1.541161098548775E+00  Z=-1.732501609744741E-02
  VX=-3.779098798632277E-03 VY=-7.831365104531788E-03 VZ=-1.343822236671726E-05
Asteroid physical parameters (km, seconds, rotational period in hours):        
   GM= n.a.                RAD= 30.2195            ROTPER= 13.71               
   H= 10.22                G= .150                 B-V= n.a.                   
                           ALBEDO= .053            STYP= n.a.                  
*******************************************************************************
JDTDB
   X     Y     Z
   VX    VY    VZ
*******************************************************************************
$$SOE
2460168.500000000 = A.D. 2023-Aug-12 00:00:00.0000 TDB 
 X = 3.937433079240108E+08 Y =-1.601727702882778E+08 Z = 7.168606968334310E+07
 VX= 7.508003770641252E+00 VY= 1.539119587398213E+01 VZ=-6.663104063950912E+00
$$EOE
*******************************************************************************
 
TIME

  Barycentric Dynamical Time ("TDB" or T_eph) output was requested. This
continuous coordinate time is equivalent to the relativistic proper time
of a clock at rest in a reference frame co-moving with the solar system
barycenter but outside the system's gravity well. It is the independent
variable in the solar system relativistic equations of motion.

  TDB runs at a uniform rate of one SI second per second and is independent
of irregularities in Earth's rotation.
 
CALENDAR SYSTEM

  Mixed calendar mode was active such that calendar dates after AD 1582-Oct-15
(if any) are in the modern Gregorian system. Dates prior to 1582-Oct-5 (if any)
are in the Julian calendar system, which is automatically extended for dates
prior to its adoption on 45-Jan-1 BC.  The Julian calendar is useful for
matching historical dates. The Gregorian calendar more accurately corresponds
to the Earth's orbital motion and seasons. A "Gregorian-only" calendar mode is
available if such physical events are the primary interest.

REFERENCE FRAME AND COORDINATES

  Ecliptic at the standard reference epoch

    Reference epoch: J2000.0
    X-Y plane: adopted Earth orbital plane at the reference epoch
               Note: IAU76 obliquity of 84381.448 arcseconds wrt ICRF X-Y plane
    X-axis   : ICRF
    Z-axis   : perpendicular to the X-Y plane in the directional (+ or -) sense
               of Earth's north pole at the reference epoch.

  Symbol meaning:

    JDTDB    Julian Day Number, Barycentric Dynamical Time
      X      X-component of position vector (km)
      Y      Y-component of position vector (km)
      Z      Z-component of position vector (km)
      VX     X-component of velocity vector (km/sec)                           
      VY     Y-component of velocity vector (km/sec)                           
      VZ     Z-component of velocity vector (km/sec)                           

ABERRATIONS AND CORRECTIONS

 Geometric state vectors have NO corrections or aberrations applied.

Computations by ...

    Solar System Dynamics Group, Horizons On-Line Ephemeris System
    4800 Oak Grove Drive, Jet Propulsion Laboratory
    Pasadena, CA  91109   USA

    General site: https://ssd.jpl.nasa.gov/
    Mailing list: https://ssd.jpl.nasa.gov/email_list.html
    System news : https://ssd.jpl.nasa.gov/horizons/news.html
    User Guide  : https://ssd.jpl.nasa.gov/horizons/manual.html
    Connect     : browser        https://ssd.jpl.nasa.gov/horizons/app.html#/x
                  API            https://ssd-api.jpl.nasa.gov/doc/horizons.html
                  command-line   telnet ssd.jpl.nasa.gov 6775
                  e-mail/batch   https://ssd.jpl.nasa.gov/ftp/ssd/hrzn_batch.txt
                  scripts        https://ssd.jpl.nasa.gov/ftp/ssd/SCRIPTS
    Author      : Jon.D.Giorgini@jpl.nasa.gov
*******************************************************************************
